H1 CPF 01  gfz 2022 09 14 12  7572 tandemx   
H2 1003001  6202 36605    2022 09 14 12 59 42 2022 09 19 00 00 42   120 1 1  0 0 0
H9
10 0 59838  56142.000000  0    3290150.243   3261932.566  -5105648.245
10 0 59838  56262.000000  0    3884887.838   3539960.244  -4461330.870
10 0 59838  56382.000000  0    4416304.176   3746570.447  -3738876.696
10 0 59838  56502.000000  0    4873802.808   3879300.038  -2950869.148
10 0 59838  56622.000000  0    5248028.648   3937142.681  -2111071.125
10 0 59838  56742.000000  0    5531065.768   3920550.993  -1234187.169
10 0 59838  56862.000000  0    5716610.603   3831408.582   -335604.277
10 0 59838  56982.000000  0    5800115.473   3672973.108    568882.273
10 0 59838  57102.000000  0    5778899.136   3449790.860   1463353.766
10 0 59838  57222.000000  0    5652219.485   3167584.289   2332057.075
10 0 59838  57342.000000  0    5421307.085   2833116.612   3159690.805
10 0 59838  57462.000000  0    5089358.464   2454036.003   3931683.277
10 0 59838  57582.000000  0    4661488.092   2038702.874   4634454.530
10 0 59838  57702.000000  0    4144643.856   1596006.451   5255655.420
10 0 59838  57822.000000  0    3547488.061   1135175.106   5784386.155
10 0 59838  57942.000000  0    2880241.808    665582.966   6211384.130
10 0 59838  58062.000000  0    2154502.951    196559.383   6529178.362
10 0 59838  58182.000000  0    1383041.213   -262794.639   6732214.259
10 0 59838  58302.000000  0     579570.855   -703782.275   6816947.001
10 0 59838  58422.000000  0    -241495.278  -1118275.138   6781899.033
10 0 59838  58542.000000  0   -1065304.184  -1498862.518   6627683.485
10 0 59838  58662.000000  0   -1876830.555  -1838984.044   6356992.861
10 0 59838  58782.000000  0   -2661148.596  -2133042.066   5974554.229
10 0 59838  58902.000000  0   -3403706.060  -2376494.375   5487054.613
10 0 59838  59022.000000  0   -4090599.349  -2565926.786   4903031.072
10 0 59838  59142.000000  0   -4708839.055  -2699101.748   4232725.355
10 0 59838  59262.000000  0   -5246601.795  -2774981.841   3487907.743
10 0 59838  59382.000000  0   -5693463.304  -2793728.058   2681673.014
10 0 59838  59502.000000  0   -6040608.961  -2756673.770   1828210.811
10 0 59838  59622.000000  0   -6281016.032  -2666274.875    942551.965
10 0 59838  59742.000000  0   -6409600.371  -2526034.451     40296.226
10 0 59838  59862.000000  0   -6423325.496  -2340405.640   -862670.165
10 0 59838  59982.000000  0   -6321270.579  -2114674.724  -1750464.381
10 0 59838  60102.000000  0   -6104653.723  -1854827.727  -2607494.862
10 0 59838  60222.000000  0   -5776812.905  -1567404.360  -3418740.775
10 0 59838  60342.000000  0   -5343145.270  -1259343.072  -4170018.102
10 0 59838  60462.000000  0   -4811006.957   -937821.340  -4848226.911
10 0 59838  60582.000000  0   -4189576.479   -610094.568  -5441575.793
10 0 59838  60702.000000  0   -3489684.683   -283337.998  -5939778.980
10 0 59838  60822.000000  0   -2723617.141     35505.118  -6334223.616
10 0 59838  60942.000000  0   -1904893.735    339865.594  -6618106.581
10 0 59838  61062.000000  0   -1048028.581    623677.739  -6786540.670
10 0 59838  61182.000000  0    -168275.603    881495.595  -6836629.180
10 0 59838  61302.000000  0     718636.539   1108594.068  -6767509.189
10 0 59838  61422.000000  0    1596777.804   1301052.321  -6580367.027
10 0 59838  61542.000000  0    2450297.508   1455820.845  -6278421.272
10 0 59838  61662.000000  0    3263705.506   1570769.539  -5866872.983
10 0 59838  61782.000000  0    4022149.555   1644715.830  -5352824.075
10 0 59838  61902.000000  0    4711685.836   1677433.358  -4745166.750
10 0 59838  62022.000000  0    5319539.912   1669641.005  -4054441.143
10 0 59838  62142.000000  0    5834350.297   1622971.379  -3292661.876
10 0 59838  62262.000000  0    6246390.241   1539919.387  -2473117.261
10 0 59838  62382.000000  0    6547763.995   1423772.167  -1610142.190
10 0 59838  62502.000000  0    6732570.163   1278521.182   -718867.027
10 0 59838  62622.000000  0    6797027.500   1108757.751    185051.606
10 0 59838  62742.000000  0    6739558.041    919555.679   1085712.406
10 0 59838  62862.000000  0    6560828.675    716343.577   1967256.114
10 0 59838  62982.000000  0    6263747.126    504768.759   2814155.102
10 0 59838  63102.000000  0    5853410.986    290557.557   3611494.820
10 0 59838  63222.000000  0    5337013.537     79375.191   4345243.234
10 0 59838  63342.000000  0    4723708.448   -123309.595   5002500.024
10 0 59838  63462.000000  0    4024438.171   -312354.549   5571725.215
10 0 59838  63582.000000  0    3251727.382   -483064.052   6042938.724
10 0 59838  63702.000000  0    2419450.590   -631295.633   6407890.156
10 0 59838  63822.000000  0    1542577.524   -753552.818   6660197.496
10 0 59838  63942.000000  0     636899.851   -847061.969   6795454.076
10 0 59838  64062.000000  0    -281255.950   -909831.523   6811300.061
10 0 59838  64182.000000  0   -1195322.595   -940692.883   6707459.844
10 0 59838  64302.000000  0   -2088789.648   -939322.202   6485745.924
10 0 59838  64422.000000  0   -2945499.982   -906242.255   6150028.898
10 0 59838  64542.000000  0   -3749941.836   -842804.778   5706175.693
10 0 59838  64662.000000  0   -4487533.550   -751154.212   5161953.969
10 0 59838  64782.000000  0   -5144894.462   -634173.133   4526902.112
10 0 59838  64902.000000  0   -5710095.613   -495409.811   3812166.176
10 0 59838  65022.000000  0   -6172884.772   -338989.578   3030306.691
10 0 59838  65142.000000  0   -6524882.007   -169511.779   2195079.605
10 0 59838  65262.000000  0   -6759742.229      8065.917   1321192.124
10 0 59838  65382.000000  0   -6873277.713    188551.980    424037.686
10 0 59838  65502.000000  0   -6863537.533    366651.642   -480583.357
10 0 59838  65622.000000  0   -6730841.462    537100.810  -1376751.384
10 0 59838  65742.000000  0   -6477767.246    694798.998  -2248715.774
10 0 59838  65862.000000  0   -6109095.245    834938.208  -3081177.864
10 0 59838  65982.000000  0   -5631708.477    953125.048  -3859566.322
10 0 59838  66102.000000  0   -5054450.121   1045492.273  -4570293.008
10 0 59838  66222.000000  0   -4387946.678   1108797.313  -5200986.891
10 0 59838  66342.000000  0   -3644400.388   1140505.620  -5740702.136
10 0 59838  66462.000000  0   -2837357.021   1138857.163  -6180098.186
10 0 59838  66582.000000  0   -1981453.846   1102914.608  -6511589.855
10 0 59838  66702.000000  0   -1092152.426   1032594.417  -6729467.098
10 0 59838  66822.000000  0    -185461.337    928678.671  -6829981.936
10 0 59838  66942.000000  0     722345.064    792808.311  -6811405.025
10 0 59838  67062.000000  0    1615010.849    627457.801  -6674054.561
10 0 59838  67182.000000  0    2476584.213    435891.130  -6420291.969
10 0 59838  67302.000000  0    3291696.758    222100.414  -6054485.566
10 0 59838  67422.000000  0    4045834.351     -9272.650  -5582942.540
10 0 59838  67542.000000  0    4725594.049   -253031.676  -5013810.600
10 0 59838  67662.000000  0    5318926.565   -503534.469  -4356949.779
10 0 59838  67782.000000  0    5815357.707   -754815.122  -3623771.716
10 0 59838  67902.000000  0    6206183.252  -1000716.561  -2827050.144
10 0 59838  68022.000000  0    6484633.744  -1235031.392  -1980704.325
10 0 59838  68142.000000  0    6646004.668  -1451647.189  -1099557.705
10 0 59838  68262.000000  0    6687747.083  -1644692.780   -199076.371
10 0 59838  68382.000000  0    6609516.754  -1808682.084    704907.181
10 0 59838  68502.000000  0    6413179.108  -1938651.766   1596480.627
10 0 59838  68622.000000  0    6102769.023  -2030288.989   2459940.642
10 0 59838  68742.000000  0    5684407.142  -2080045.758   3280078.913
10 0 59838  68862.000000  0    5166173.398  -2085236.432   4042457.353
10 0 59838  68982.000000  0    4557942.725  -2044116.806   4733666.120
10 0 59838  69102.000000  0    3871189.079  -1955942.025   5341560.725
10 0 59838  69222.000000  0    3118760.319  -1821003.475   5855475.742
10 0 59838  69342.000000  0    2314628.609  -1640642.941   6266407.783
10 0 59838  69462.000000  0    1473625.228  -1417244.524   6567167.329
10 0 59838  69582.000000  0     611162.825  -1154204.607   6752498.916
10 0 59838  69702.000000  0    -257049.347   -855879.562   6819167.237
10 0 59838  69822.000000  0   -1115291.297   -527512.933   6766008.893
10 0 59838  69942.000000  0   -1948115.500   -175143.485   6593951.127
10 0 59838  70062.000000  0   -2740623.618    194505.411   6305996.790
10 0 59838  70182.000000  0   -3478732.999    574153.026   5907176.127
10 0 59838  70302.000000  0   -4149429.550    956102.884   5404464.899
10 0 59838  70422.000000  0   -4741002.497   1332396.622   4806668.401
10 0 59838  70542.000000  0   -5243256.051   1694978.197   4124272.754
10 0 59838  70662.000000  0   -5647693.424   2035864.289   3369264.280
10 0 59838  70782.000000  0   -5947668.688   2347317.415   2554920.772
10 0 59838  70902.000000  0   -6138504.274   2622017.982   1695577.521
10 0 59838  71022.000000  0   -6217570.881   2853231.428    806370.893
10 0 59838  71142.000000  0   -6184325.343   3034965.570    -97035.956
10 0 59838  71262.000000  0   -6040306.248   3162114.016   -998737.339
10 0 59838  71382.000000  0   -5789087.649   3230581.666  -1882874.012
10 0 59838  71502.000000  0   -5436191.931   3237390.046  -2733921.144
10 0 59838  71622.000000  0   -4988962.789   3180758.607  -3536967.357
10 0 59838  71742.000000  0   -4456404.179   3060160.884  -4277978.689
10 0 59838  71862.000000  0   -3848989.378   2876354.518  -4944041.956
10 0 59838  71982.000000  0   -3178446.159   2631384.790  -5523583.940
10 0 59838  72102.000000  0   -2457524.446   2328562.995  -6006562.731
10 0 59838  72222.000000  0   -1699750.216   1972420.439  -6384632.251
10 0 59838  72342.000000  0    -919169.721   1568637.887  -6651274.318
10 0 59838  72462.000000  0    -130092.027   1123953.823  -6801899.693
10 0 59838  72582.000000  0     653167.770    646052.490  -6833917.950
99
